#dP2023  9  5  0  0  0.00000000      96 __u+U ITR00 FIT  IAC
## 2278 172800.00000000   900.00000000 60192 0.0000000000000
+  119   C06C07C08C09C10C11C12C13C14C16C19C20C21C22C23C24C25
+        C26C27C28C29C30C32C33C34C35C36C37C38C39C40C41C42C43
+        C44C45C46E02E03E04E05E07E08E09E10E11E12E13E14E15E18
+        E19E21E24E25E26E27E30E31E33E34E36G01G02G03G04G05G06
+        G07G08G09G10G11G12G13G14G15G16G17G18G19G20G21G22G23
+        G24G25G26G27G28G29G30G31G32J02J03J04R01R02R03R04R05
+        R07R08R09R11R12R13R14R15R16R17R18R19R20R21R22R24R25
++         8  8  9  8  7  7  6  9  7  9  8  8  5  4  8  7  7
++         6  7  7  6  7  6  7  7  5  6  6  8  8  7  6  7  6
++         7  5  8  6  7  5  6  4  6  6  5  5  7  5  6  6  6
++         6  5  6  5  5  5  5  5  5  6  5  6  5  6  5  6  6
++         5  5  5  5  6  6  6  5  6  4  6  5  6  5  6  5  5
++         6  6  5  6  5  5  5  6  5  6  7  8  7  7  5  6  6
++         8  6  6  5  5  7  6  7  7  5  7  8  9  6  5  5  6
%c M  cc GPS ccc cccc cccc cccc cccc ccccc ccccc ccccc ccccc
%c cc cc ccc ccc cccc cccc cccc cccc ccccc ccccc ccccc ccccc
%f  0.0000000  0.000000000  0.00000000000  0.000000000000000
%f  0.0000000  0.000000000  0.00000000000  0.000000000000000
%i    0    0    0    0      0      0      0      0         0
%i    0    0    0    0      0      0      0      0         0
/* INFORMATION & ANALYSIS CENTER (IAC)      ULTRA-RAPID DATA
/* S/V CLOCKS ARE ALIGNED TO GNSS TIME                      
/* G:C1WC2W R:C1PC2P E:C1XC5X C:C2IC6I J:C1CC2S             
/* PCV:IGS20_2274 OL/AL:FES2004  NONE     YN ORB:CoN CLK:CoN
*  2023 09 05 13  0  0.00000000
PC06 -14049.518993  24442.800974  31298.984356     25.418479
PC07 -12405.766503  40382.916980   1771.078189    -40.353611
PC08    880.614557  28337.548685 -31144.037110    359.204127
PC09  -4813.631227  24768.398781  34139.295918    204.101115
PC10  -6998.238131  41616.592925  -4426.322032   -168.417081
PC11  26128.156469  -9755.498203      4.982113    816.347755
PC12  22000.526564   3413.829378 -16773.891225    932.436558
PC13   6457.521698  31900.149304 -26500.145657    346.662368
PC14  15388.776388 -11632.929651  20149.625592    352.135127
PC16 -18335.624181  23446.465021  29988.553058    -66.533713
PC19 -12334.942199  20728.586056 -14037.027916   -970.610978
PC20 -15939.008697   2829.324155 -22732.707954    307.255467
PC21  10145.048001  18411.970318  18369.322500   -963.296034
PC22  -1496.814991  27694.338913   3196.199664   -320.545360
PC23  -3676.341230 -20114.013343 -18982.835957   -881.388274
PC24  23968.200596   7196.244197 -12329.104821    360.164270
PC25  13373.981922 -10112.999641 -22311.397200    204.703072
PC26  20553.203601  18454.332517   3824.524308   -173.366795
PC27 -15545.846475  -9588.936004  21077.946510    194.804826
PC28   2577.463227 -17342.549916  21713.071758    146.012748
PC29 -21136.886988  16065.736210  -8610.714243    170.461592
PC30 -25856.476718   4214.534482   9588.480175     -4.475440
PC32 -10243.048852 -18409.825528 -18288.879508   -529.423423
PC33  12276.789238 -20682.092892  14133.040105   -956.945989
PC34  26127.256277  -5228.507609  -8327.639573    252.818376
PC35  -2053.389178  17532.829249 -21617.506037    552.912573
PC36 -14312.929469   9136.870886  22173.699677   -240.936599
PC37 -19657.325609 -19272.222923  -4639.439409   -820.940814
PC38  -7288.284573  24478.483017 -33486.056070    102.812144
PC39 -23419.673039  23291.850699  26108.179081     -4.645964
PC40 -18797.194345  37637.456089   4516.127961    -35.414938
PC41   1885.830426 -27727.437321  -2431.995107   -881.059166
PC42  15912.477460  -1064.422788  22932.245900   -556.116518
PC43  21721.955772 -15709.963916   7769.805645     38.411164
PC44  15801.512603   9252.092845 -21077.167276    222.082418
PC45   4220.489891  20197.243629  18782.472415    -22.149397
PC46 -23696.736768  -6235.131865  13393.793874    -81.953291
PE02 -12965.905029  12124.684501  23688.101065     60.375295
PE03 -21608.228944  19364.106985  -5897.843900    -52.939836
PE04   9719.736213 -25081.560383 -12348.948907   -205.311605
PE05 -20952.195084   2335.279380 -20780.144851     15.566992
PE07   7713.667378  16364.161674  23430.931434    -72.602895
PE08 -10128.033805  25091.450311  12011.416385   -141.483029
PE09  -7515.835853 -16362.924477 -23492.512578   -145.658877
PE10  -8250.371386 -16499.016806  23143.407642   -561.464919
PE11 -19069.881819 -14658.440311  17237.684319   2870.938688
PE12   2892.715901 -15804.931394  24853.603590   -685.756939
PE13  18438.813886  14803.890407 -17802.566505    -19.571088
PE14   5941.066353  21206.632247 -22681.674031    331.671928
PE15  -3340.087107  15648.639826 -24900.221857    -50.805280
PE18 -15010.779130  -7603.589352  18988.115776    495.832627
PE19  22333.895982 -17581.000858   8267.995244  -1696.275201
PE21  18676.109397   8563.322369 -21302.759976   -550.844306
PE24 -13474.757992 -25705.364392   5860.115338   -304.916991
PE25 -18697.455469  -8944.559349  21144.184452     -1.354472
PE26  29185.426414   4888.880024    325.567360    213.595920
PE27  13850.843624  25351.388225  -6429.961779   -142.380390
PE30    495.172658  26872.216817  12389.476629   -475.543811
PE31   -942.934736 -27021.322575 -12035.173286     -4.359915
PE33  23290.380894  -6956.246688  16880.036168     -0.825181
PE34 -22845.034351   7374.120318 -17337.658520    -65.405174
PE36 -29119.172633  -5309.472233    387.615168   -111.634806
PG01  16869.826016  14038.735741 -15541.649832    166.288698
PG02  10580.450027  14451.204784 -19165.965052   -557.483280
PG03  12602.348948  22330.770101   6996.207546   -151.417517
PG04   9094.345664  12342.552295  21687.839514    146.994740
PG05  -4315.929508 -24986.655608   7547.433148   -141.546032
PG06  19979.105406  -6787.736953  16251.768600    555.475441
PG07  26066.926113   6239.381145   1528.850192     75.752570
PG08     91.067743  19624.662468 -17783.908384   -140.727284
PG09  16195.678985   3348.645497  20709.253156    -67.919515
PG10 -13519.710836   5872.084419 -21905.085450    -52.153520
PG11   6797.437646 -13762.475246  21683.280154   -354.122257
PG12  -9034.547106 -24755.410336   3357.266843   -421.245250
PG13   9780.354214 -20708.294930 -13458.053303    568.851408
PG14  15463.472151  -2238.601643 -21465.920317    175.749225
PG15  -3576.338112 -19351.488298 -18210.342341     74.585449
PG16  -2171.805194  23594.424852  11219.058362   -458.529004
PG17  21364.665559 -11658.210307 -10327.728254    723.515196
PG18 -26221.079715  -4564.660542  -1504.921394   -407.092940
PG19  20691.193611 -16042.470639  -3399.997330    367.353792
PG20   2744.221509 -20315.961330  17023.864186    413.466232
PG21   8605.245944  14888.339525 -19951.135655    149.493826
PG22  12213.166133 -10576.882532 -20671.044829    127.758883
PG23 -16782.231354  -7790.534866 -19116.446939     64.269690
PG24 -13105.797129 -14885.524014 -18232.719512   -310.771095
PG25 -16287.314706 -15265.574278  14275.297202    466.126697
PG26  -8236.872792  16452.539836  18913.512035    229.928895
PG27 -10927.339456  22290.744991  -9094.800753    -34.368083
PG28 -21268.738675   6764.794145  14378.123417     -5.823901
PG29 -15778.905403  -4329.875754  20897.967793   -608.933288
PG30  25251.943802  -1258.931693  -8441.691945   -490.462285
PG31 -12947.944149  11655.236186  19976.872837   -222.932512
PG32 -20050.947468  15505.758915  -7394.929832   -552.920071
PJ02 -26888.288842  23942.163710  27047.318259     -3.549723
PJ03 -34021.072542  17288.242595 -13354.349968     -2.176890
PJ04 -20066.459308  32952.742694 -11868.932954     70.538578
PR01   3859.232646  17504.863702  18147.842524     64.980371
PR02  11351.762534   -175.328508  22886.373631    -22.456313
PR03  12559.354215 -17295.624989  14008.895918     84.655527
PR04   7004.297399 -24423.258748  -2336.891114    201.568779
PR05  -2329.454880 -18472.037106 -17444.520616    118.520281
PR07 -12394.562305  17872.800654 -13248.828257     63.990349
PR08  -6670.707083  24464.129069   2650.751228    -72.422345
PR09 -19011.486708 -10126.734690  13619.951062    140.598006
PR11   2325.350689  16188.683501  19595.902958   -153.526927
PR12  15676.140351  19781.998473   3674.535726     30.944431
PR13  19080.077495  12049.706500 -11900.346441    -38.893659
PR14  10885.487415  -4418.709700 -22626.193990     25.212829
PR15  -3235.358939 -16954.362939 -18753.944388     86.448899
PR16 -15704.227402 -19687.957006  -3920.334355     18.393300
PR17  22315.929423  -8672.056368   8737.535770     14.826181
PR18   9165.404845 -11387.351148  20929.639376    100.391313
PR19  -7054.164436  -9087.828839  22767.027272   -246.101626
PR20 -23548.587032   -534.323527   9759.433715    -99.510183
PR21 -21913.075002   8812.281685  -9681.615378    -35.729343
PR22  -8415.266504  11467.546453 -21146.652625    126.751257
PR24  23817.565636   -471.784561  -9068.397083    -23.190822
PR25 -22730.202934   7773.208195  -8614.036524     39.213683
EOF
